COSMOS 2425 (716)       
1 29670U 06062A   17338.63287148 -.00000018  00000-0  10000-3 0  9993
2 29670  65.3777 299.1098 0021857 339.1194 235.9287  2.13105017 85168
COSMOS 2426 (717)       
1 29671U 06062B   17338.73044891 -.00000017  00000-0  10000-3 0  9990
2 29671  65.3944 299.1997 0017182 173.2392 333.7756  2.13103118 85175
COSMOS 2433 (720)       
1 32275U 07052A   17339.42914074 -.00000031  00000-0  10000-3 0  9996
2 32275  65.5938  59.8709 0003181 240.9272  56.8355  2.13104839 78697
COSMOS 2432 (719)       
1 32276U 07052B   17339.53164065 -.00000031  00000-0  10000-3 0  9996
2 32276  65.6070  59.9407 0010146 331.1485 357.6969  2.13103941 78696
COSMOS 2434 (721)       
1 32393U 07065A   17339.37297050 -.00000016  00000-0  00000+0 0  9991
2 32393  64.9930 298.1522 0001943 141.9862   1.4534  2.13102970 77400
COSMOS 2436 (723)       
1 32395U 07065C   17338.69463316 -.00000018  00000-0  10000-3 0  9994
2 32395  65.0026 298.2236 0015064 350.5969  41.9829  2.13104319 77324
COSMOS 2456 (730)       
1 36111U 09070A   17339.04794951  .00000087  00000-0  00000+0 0  9994
2 36111  64.1805 177.7366 0003394 343.8639  81.9296  2.13102997 62063
COSMOS 2457 (733)       
1 36112U 09070B   17338.86300473  .00000089  00000-0  00000+0 0  9998
2 36112  64.1616 177.6584 0006841 150.2648 261.4417  2.13101716 62063
COSMOS 2458 (734)       
1 36113U 09070C   17338.79006807  .00000090  00000-0  10000-3 0  9992
2 36113  64.1668 177.6701 0002902  55.1764 348.6898  2.13101959 62068
COSMOS 2459 (731)       
1 36400U 10007A   17339.14931935 -.00000031  00000-0  10000-3 0  9998
2 36400  65.5039  58.9647 0025878 351.4181 312.2632  2.13102188 60411
COSMOS 2461 (735)       
1 36401U 10007B   17339.45837582 -.00000032  00000-0  10000-3 0  9997
2 36401  65.4977  58.9306 0006063  77.1347  14.2482  2.13102097 60427
COSMOS 2460 (732)       
1 36402U 10007C   17339.16355338 -.00000031  00000-0  10000-3 0  9999
2 36402  65.4877  58.9117 0001016 182.7212  83.4674  2.13101748 60416
COSMOS 2464 (736)       
1 37139U 10041C   17339.01480318 -.00000017  00000-0  00000+0 0  9995
2 37139  64.5984 298.0677 0022913   6.1573  90.2566  2.13102761 56483
COSMOS 2471 (701K)      
1 37372U 11009A   17339.16967361 -.00000031  00000-0  00000+0 0  9999
2 37372  65.4841  58.8581 0008798 228.6619 182.0216  2.13107766 52698
COSMOS 2474 (742)       
1 37829U 11055A   17338.63053737  .00000092  00000-0  00000+0 0  9997
2 37829  64.5036 178.3867 0006464 241.3696  83.2095  2.13101937 48046
COSMOS 2476 (744)       
1 37867U 11064A   17339.30787775  .00000084  00000-0  00000+0 0  9991
2 37867  64.4844 178.4306 0015970 239.2120 290.9818  2.13102009 47414
COSMOS 2477 (745)       
1 37868U 11064B   17338.96804019  .00000088  00000-0  00000+0 0  9998
2 37868  64.4917 178.4895 0013809 240.4850 208.0396  2.13101882 47365
COSMOS 2475 (743)       
1 37869U 11064C   17339.38910285  .00000083  00000-0  00000+0 0  9994
2 37869  64.4997 178.4669 0018141 270.0333  98.0909  2.13102166 47387
COSMOS 2485 (747)       
1 39155U 13019A   17338.62500039  .00000093  00000-0  00000+0 0  9995
2 39155  64.6535 178.5216 0016511 233.5220 177.7667  2.13102039 35870
COSMOS 2492 (754)       
1 39620U 14012A   17338.70694365 -.00000031  00000-0  10000-3 0  9999
2 39620  65.3765  58.8384 0013617 327.2237 181.3931  2.13103446 28824
COSMOS 2500 (755)       
1 40001U 14032A   17339.32995204 -.00000032  00000-0  00000+0 0  9997
2 40001  65.3183  58.8025 0007173 203.6319 285.6210  2.13102740 27051
COSMOS 2501 (702K)      
1 40315U 14075A   17339.08677938 -.00000018  00000-0  00000+0 0  9990
2 40315  64.3232 299.3458 0016305 213.7531 252.8613  2.13098573 23451
COSMOS 2514 (751)       
1 41330U 16008A   17338.61885135 -.00000031  00000-0  00000-0 0  9990
2 41330  65.1191  58.9288 0010424 213.0237 271.1251  2.13103388 14200
COSMOS 2516 (753)       
1 41554U 16032A   17338.90142606 -.00000018  00000-0  00000+0 0  9990
2 41554  64.5433 299.1644 0013764 227.9394   4.7780  2.13101738 11811
COSMOS 2522 (752)       
1 42939U 17055A   17338.63270256 -.00000019  00000-0  00000-0 0  9999
2 42939  64.7744 299.0832 0009715 254.3289 358.6012  2.13102002  1567
